GLOBALSTAR M084         
1 38040U 11080A   26027.57937015 -.00000098  00000+0  30343-4 0  9993
2 38040  52.0009  85.3436 0000834 134.6291  22.9973 12.62267470651004
GLOBALSTAR M080         
1 38041U 11080B   26027.63175147 -.00000098  00000+0  30658-4 0  9990
2 38041  52.0061  86.8542 0000182  78.1573  87.2681 12.62265726651134
GLOBALSTAR M082         
1 38042U 11080C   26027.06359744 -.00000094  00000+0  51895-4 0  9997
2 38042  52.0086  44.0687 0000207  39.2962 352.8957 12.62267028651770
GLOBALSTAR M092         
1 38043U 11080D   26027.78054963 -.00000094  00000+0  56954-4 0  9993
2 38043  52.0082 132.2754 0000839 112.2412  59.4833 12.62269796650311
GLOBALSTAR M090         
1 38044U 11080E   26027.95655874 -.00000088  00000+0  86975-4 0  9990
2 38044  52.0134  35.2616 0000409  82.0862 288.5777 12.62266310652004
GLOBALSTAR M086         
1 38045U 11080F   26027.34744140 -.00000105  00000+0 -41922-5 0  9994
2 38045  51.9908  37.2747 0001470  97.4606 276.4220 12.62282088651877
GLOBALSTAR M097         
1 39072U 13005A   26027.76896098 -.00000090  00000+0  75340-4 0  9992
2 39072  52.0066 310.7822 0000812  63.4285 296.6665 12.62268390599174
GLOBALSTAR M093         
1 39073U 13005B   26027.74276017 -.00000079  00000+0  13636-3 0  9990
2 39073  52.0124 304.1569 0001041  55.6320 304.4645 12.62272208599127
